{
  "norad_id": 68227,
  "name": "STARLINK-37083",
  "history": [
    {
      "epoch": "2026-03-28T22:00:01.999584Z",
      "apogee_km": 329.2641985897162,
      "perigee_km": 326.94424150205305,
      "latitude_deg": 79.51406737180031,
      "longitude_deg": 30.14751668779063,
      "height_km": 340.3146631855839,
      "semi_major_axis_km": 6706.241220045885,
      "eccentricity": 0.00017297,
      "inclination_deg": 97.2812,
      "raan_deg": 323.1368,
      "arg_perigee_deg": 114.2099,
      "mean_anomaly_deg": 343.433,
      "mean_motion_rev_day": 15.80825766
    },
    {
      "epoch": "2026-03-29T04:00:01.999584Z",
      "apogee_km": 329.1411210141041,
      "perigee_km": 326.79398442065303,
      "latitude_deg": 77.21250248309322,
      "longitude_deg": 42.771589769429035,
      "height_km": 340.0872917670163,
      "semi_major_axis_km": 6706.104552717378,
      "eccentricity": 0.000175,
      "inclination_deg": 97.2819,
      "raan_deg": 323.401,
      "arg_perigee_deg": 113.2383,
      "mean_anomaly_deg": 326.1609,
      "mean_motion_rev_day": 15.80874091
    },
    {
      "epoch": "2026-03-30T04:00:01.999584Z",
      "apogee_km": 328.8848404440114,
      "perigee_km": 326.8475566722882,
      "latitude_deg": 6.314850458506248,
      "longitude_deg": 76.08288729981352,
      "height_km": 330.3068106020594,
      "semi_major_axis_km": 6706.003198558149,
      "eccentricity": 0.0001519,
      "inclination_deg": 97.2845,
      "raan_deg": 324.4595,
      "arg_perigee_deg": 88.8395,
      "mean_anomaly_deg": 277.6286,
      "mean_motion_rev_day": 15.80909931
    },
    {
      "epoch": "2026-03-30T06:00:02.000160Z",
      "apogee_km": 329.1876623903963,
      "perigee_km": 327.20044237295497,
      "latitude_deg": 58.879616289938205,
      "longitude_deg": -120.94894509643113,
      "height_km": 337.4485128176193,
      "semi_major_axis_km": 6706.331052381675,
      "eccentricity": 0.00014816,
      "inclination_deg": 97.2845,
      "raan_deg": 324.5498,
      "arg_perigee_deg": 81.3568,
      "mean_anomaly_deg": 39.0794,
      "mean_motion_rev_day": 15.80794003
    },
    {
      "epoch": "2026-03-30T14:00:03.000384Z",
      "apogee_km": 329.34211492092163,
      "perigee_km": 327.1763513213973,
      "latitude_deg": -36.11701836821624,
      "longitude_deg": 101.59536585456523,
      "height_km": 342.9900679706987,
      "semi_major_axis_km": 6706.396233121159,
      "eccentricity": 0.00016147,
      "inclination_deg": 97.2844,
      "raan_deg": 324.9025,
      "arg_perigee_deg": 69.9119,
      "mean_anomaly_deg": 146.2515,
      "mean_motion_rev_day": 15.80770957
    },
    {
      "epoch": "2026-03-30T22:00:00.999936Z",
      "apogee_km": 328.963173680394,
      "perigee_km": 326.9140652141159,
      "latitude_deg": -48.012804746648854,
      "longitude_deg": 175.06761071095764,
      "height_km": 347.1361230569254,
      "semi_major_axis_km": 6706.075619447254,
      "eccentricity": 0.00015278,
      "inclination_deg": 97.2846,
      "raan_deg": 325.254,
      "arg_perigee_deg": 71.1375,
      "mean_anomaly_deg": 240.6196,
      "mean_motion_rev_day": 15.80884322
    },
    {
      "epoch": "2026-03-31T20:00:01.999008Z",
      "apogee_km": 329.3082532250901,
      "perigee_km": 326.85243643341255,
      "latitude_deg": 54.46986391486044,
      "longitude_deg": 27.263653576639094,
      "height_km": 336.9887447164925,
      "semi_major_axis_km": 6706.217344829251,
      "eccentricity": 0.0001831,
      "inclination_deg": 97.2849,
      "raan_deg": 326.2231,
      "arg_perigee_deg": 42.189,
      "mean_anomaly_deg": 82.7721,
      "mean_motion_rev_day": 15.80834208
    },
    {
      "epoch": "2026-04-01T19:46:52.983840Z",
      "apogee_km": 328.84111070057406,
      "perigee_km": 327.04656346857155,
      "latitude_deg": 3.146177934787843e-05,
      "longitude_deg": -159.6304743773845,
      "height_km": 330.6777720906367,
      "semi_major_axis_km": 6706.0808370845725,
      "eccentricity": 0.0001338,
      "inclination_deg": 97.2853,
      "raan_deg": 327.272,
      "arg_perigee_deg": 60.6307,
      "mean_anomaly_deg": 299.5095,
      "mean_motion_rev_day": 15.80882477
    },
    {
      "epoch": "2026-04-02T20:05:19.142304Z",
      "apogee_km": 328.5253711611276,
      "perigee_km": 326.83014119076597,
      "latitude_deg": -9.093223155475772e-05,
      "longitude_deg": -164.1660155704624,
      "height_km": 330.6083377502979,
      "semi_major_axis_km": 6705.814756175946,
      "eccentricity": 0.0001264,
      "inclination_deg": 97.285,
      "raan_deg": 328.3437,
      "arg_perigee_deg": 73.3026,
      "mean_anomaly_deg": 286.838,
      "mean_motion_rev_day": 15.8097657
    },
    {
      "epoch": "2026-04-02T21:36:28.263168Z",
      "apogee_km": 328.56538587292016,
      "perigee_km": 326.6558571802143,
      "latitude_deg": -3.690331324872709e-05,
      "longitude_deg": 173.05058266881832,
      "height_km": 330.5505041862003,
      "semi_major_axis_km": 6705.747621526567,
      "eccentricity": 0.00014238,
      "inclination_deg": 97.2849,
      "raan_deg": 328.4107,
      "arg_perigee_deg": 75.8142,
      "mean_anomaly_deg": 284.3284,
      "mean_motion_rev_day": 15.81000312
    },
    {
      "epoch": "2026-04-03T18:52:39.793152Z",
      "apogee_km": 328.64450932033196,
      "perigee_km": 327.13163006461036,
      "latitude_deg": 6.717171708729654e-05,
      "longitude_deg": -145.93379464786048,
      "height_km": 330.8736371433518,
      "semi_major_axis_km": 6706.025069692471,
      "eccentricity": 0.0001128,
      "inclination_deg": 97.2841,
      "raan_deg": 329.3479,
      "arg_perigee_deg": 75.5578,
      "mean_anomaly_deg": 284.5816,
      "mean_motion_rev_day": 15.80902197
    },
    {
      "epoch": "2026-04-04T19:11:07.240704Z",
      "apogee_km": 329.7767694696686,
      "perigee_km": 326.7374316632922,
      "latitude_deg": -5.86779102043441e-07,
      "longitude_deg": -150.47513027007366,
      "height_km": 332.4499286751282,
      "semi_major_axis_km": 6706.39410056648,
      "eccentricity": 0.0002266,
      "inclination_deg": 97.2832,
      "raan_deg": 330.4192,
      "arg_perigee_deg": 132.1313,
      "mean_anomaly_deg": 228.0148,
      "mean_motion_rev_day": 15.80771711
    },
    {
      "epoch": "2026-04-05T14:56:07.181376Z",
      "apogee_km": 328.86727159134443,
      "perigee_km": 326.9970830191769,
      "latitude_deg": -2.2649647479000502e-05,
      "longitude_deg": -86.66538457300327,
      "height_km": 330.90587731877474,
      "semi_major_axis_km": 6706.06917730526,
      "eccentricity": 0.00013944,
      "inclination_deg": 97.2841,
      "raan_deg": 331.2898,
      "arg_perigee_deg": 77.6456,
      "mean_anomaly_deg": 282.4968,
      "mean_motion_rev_day": 15.808866
    },
    {
      "epoch": "2026-04-05T19:29:33.782784Z",
      "apogee_km": 328.8110172419856,
      "perigee_km": 326.88505833913314,
      "latitude_deg": -3.1630815766797246e-05,
      "longitude_deg": -155.01308829886702,
      "height_km": 331.15107584619506,
      "semi_major_axis_km": 6705.9850377905595,
      "eccentricity": 0.0001436,
      "inclination_deg": 97.2838,
      "raan_deg": 331.4901,
      "arg_perigee_deg": 97.713,
      "mean_anomaly_deg": 262.4301,
      "mean_motion_rev_day": 15.80916353
    },
    {
      "epoch": "2026-04-06T04:36:29.787552Z",
      "apogee_km": 328.88939784963986,
      "perigee_km": 327.26314113178796,
      "latitude_deg": -1.4157678454608146e-05,
      "longitude_deg": 68.28189284910462,
      "height_km": 331.5947824744895,
      "semi_major_axis_km": 6706.213269490713,
      "eccentricity": 0.00012125,
      "inclination_deg": 97.2846,
      "raan_deg": 331.8928,
      "arg_perigee_deg": 115.0484,
      "mean_anomaly_deg": 245.091,
      "mean_motion_rev_day": 15.80835649
    },
    {
      "epoch": "2026-04-07T20:06:19.104768Z",
      "apogee_km": 324.7620915655534,
      "perigee_km": 323.1080201821633,
      "latitude_deg": -9.147245759001476e-05,
      "longitude_deg": -164.05417567212416,
      "height_km": 327.78665702632986,
      "semi_major_axis_km": 6702.072055873858,
      "eccentricity": 0.0001234,
      "inclination_deg": 97.2855,
      "raan_deg": 333.6343,
      "arg_perigee_deg": 144.6682,
      "mean_anomaly_deg": 215.4668,
      "mean_motion_rev_day": 15.82301074
    },
    {
      "epoch": "2026-04-08T14:00:04.999680Z",
      "apogee_km": 340.92385350002405,
      "perigee_km": 338.54398054895864,
      "latitude_deg": -82.15528098328382,
      "longitude_deg": -5.13620126007462,
      "height_km": 369.2710944980081,
      "semi_major_axis_km": 6717.870917024491,
      "eccentricity": 0.00017713,
      "inclination_deg": 97.2845,
      "raan_deg": 334.4216,
      "arg_perigee_deg": 100.4848,
      "mean_anomaly_deg": 172.5573,
      "mean_motion_rev_day": 15.76722554
    },
    {
      "epoch": "2026-04-09T20:00:01.999008Z",
      "apogee_km": 355.76364038218253,
      "perigee_km": 353.3843003252605,
      "latitude_deg": 28.237316870894624,
      "longitude_deg": 21.560084541567075,
      "height_km": 357.6344908015457,
      "semi_major_axis_km": 6732.710970353722,
      "eccentricity": 0.0001767,
      "inclination_deg": 97.2843,
      "raan_deg": 335.7302,
      "arg_perigee_deg": 92.6193,
      "mean_anomaly_deg": 58.9228,
      "mean_motion_rev_day": 15.71512376
    },
    {
      "epoch": "2026-04-10T12:00:02.000160Z",
      "apogee_km": 363.7948958399329,
      "perigee_km": 361.6486064135752,
      "latitude_deg": -42.666481523022,
      "longitude_deg": -35.586494020534026,
      "height_km": 380.03093796028423,
      "semi_major_axis_km": 6740.858751126754,
      "eccentricity": 0.0001592,
      "inclination_deg": 97.285,
      "raan_deg": 336.4262,
      "arg_perigee_deg": 95.5879,
      "mean_anomaly_deg": 221.6088,
      "mean_motion_rev_day": 15.6866397
    },
    {
      "epoch": "2026-04-11T20:00:01.000224Z",
      "apogee_km": 380.0883242035361,
      "perigee_km": 377.57608305362737,
      "latitude_deg": -82.54414985410449,
      "longitude_deg": -58.50056970775241,
      "height_km": 408.48309694129205,
      "semi_major_axis_km": 6756.969203628581,
      "eccentricity": 0.0001859,
      "inclination_deg": 97.2849,
      "raan_deg": 337.8089,
      "arg_perigee_deg": 91.6203,
      "mean_anomaly_deg": 176.5967,
      "mean_motion_rev_day": 15.63057133
    }
  ]
}